[
  {
    "COMMENT": "GENERATED VIA SPACETRACK.ORG API",
    "ORIGINATOR": "18 SPCS",
    "NORAD_CAT_ID": "25260",
    "OBJECT_NAME": "SPOT 4",
    "OBJECT_TYPE": "PAYLOAD",
    "CLASSIFICATION_TYPE": "U",
    "INTLDES": "98017A",
    "EPOCH": "2023-05-04 20:12:03",
    "EPOCH_MICROSECONDS": "534048",
    "MEAN_MOTION": "14.54155369",
    "ECCENTRICITY": "0.0013904",
    "INCLINATION": "98.2611",
    "RA_OF_ASC_NODE": "218.369",
    "ARG_OF_PERICENTER": "138.8237",
    "MEAN_ANOMALY": "221.4011",
    "EPHEMERIS_TYPE": "0",
    "ELEMENT_SET_NO": "999",
    "REV_AT_EPOCH": "31361",
    "BSTAR": "0.00013703",
    "MEAN_MOTION_DOT": "0.00000535",
    "MEAN_MOTION_DDOT": "0",
    "FILE": "3901186",
    "TLE_LINE0": "0 SPOT 4",
    "TLE_LINE1": "1 25260U 98017A   23124.84170757  .00000535  00000-0  13703-3 0  9991",
    "TLE_LINE2": "2 25260  98.2611 218.3690 0013904 138.8237 221.4011 14.54155369313610",
    "OBJECT_ID": "1998-017A",
    "OBJECT_NUMBER": "25260",
    "SEMIMAJOR_AXIS": "7090.246",
    "PERIOD": "99.027",
    "APOGEE": "721.969",
    "PERIGEE": "702.253",
    "DECAYED": "0"
  },
  {
    "COMMENT": "GENERATED VIA SPACETRACK.ORG API",
    "ORIGINATOR": "18 SPCS",
    "NORAD_CAT_ID": "25260",
    "OBJECT_NAME": "SPOT 4",
    "OBJECT_TYPE": "PAYLOAD",
    "CLASSIFICATION_TYPE": "U",
    "INTLDES": "98017A",
    "EPOCH": "2023-05-04 23:30:13",
    "EPOCH_MICROSECONDS": "739616",
    "MEAN_MOTION": "14.54155541",
    "ECCENTRICITY": "0.0013912",
    "INCLINATION": "98.2611",
    "RA_OF_ASC_NODE": "218.5049",
    "ARG_OF_PERICENTER": "138.4172",
    "MEAN_ANOMALY": "221.8086",
    "EPHEMERIS_TYPE": "0",
    "ELEMENT_SET_NO": "999",
    "REV_AT_EPOCH": "31387",
    "BSTAR": "0.00013817",
    "MEAN_MOTION_DOT": "0.0000054",
    "MEAN_MOTION_DDOT": "0",
    "FILE": "3901132",
    "TLE_LINE0": "0 SPOT 4",
    "TLE_LINE1": "1 25260U 98017A   23124.97932569  .00000540  00000-0  13817-3 0  9994",
    "TLE_LINE2": "2 25260  98.2611 218.5049 0013912 138.4172 221.8086 14.54155541313879",
    "OBJECT_ID": "1998-017A",
    "OBJECT_NUMBER": "25260",
    "SEMIMAJOR_AXIS": "7090.245",
    "PERIOD": "99.027",
    "APOGEE": "721.974",
    "PERIGEE": "702.246",
    "DECAYED": "0"
  },
  {
    "COMMENT": "GENERATED VIA SPACETRACK.ORG API",
    "ORIGINATOR": "18 SPCS",
    "NORAD_CAT_ID": "25260",
    "OBJECT_NAME": "SPOT 4",
    "OBJECT_TYPE": "PAYLOAD",
    "CLASSIFICATION_TYPE": "U",
    "INTLDES": "98017A",
    "EPOCH": "2023-05-05 06:06:34",
    "EPOCH_MICROSECONDS": "134336",
    "MEAN_MOTION": "14.54155913",
    "ECCENTRICITY": "0.0013922",
    "INCLINATION": "98.2611",
    "RA_OF_ASC_NODE": "218.7766",
    "ARG_OF_PERICENTER": "137.6515",
    "MEAN_ANOMALY": "222.5759",
    "EPHEMERIS_TYPE": "0",
    "ELEMENT_SET_NO": "999",
    "REV_AT_EPOCH": "31391",
    "BSTAR": "0.00013819",
    "MEAN_MOTION_DOT": "0.0000054",
    "MEAN_MOTION_DDOT": "0",
    "FILE": "3901427",
    "TLE_LINE0": "0 SPOT 4",
    "TLE_LINE1": "1 25260U 98017A   23125.25456174  .00000540  00000-0  13819-3 0  9991",
    "TLE_LINE2": "2 25260  98.2611 218.7766 0013922 137.6515 222.5759 14.54155913313913",
    "OBJECT_ID": "1998-017A",
    "OBJECT_NUMBER": "25260",
    "SEMIMAJOR_AXIS": "7090.244",
    "PERIOD": "99.027",
    "APOGEE": "721.980",
    "PERIGEE": "702.238",
    "DECAYED": "0"
  },
  {
    "COMMENT": "GENERATED VIA SPACETRACK.ORG API",
    "ORIGINATOR": "18 SPCS",
    "NORAD_CAT_ID": "25260",
    "OBJECT_NAME": "SPOT 4",
    "OBJECT_TYPE": "PAYLOAD",
    "CLASSIFICATION_TYPE": "U",
    "INTLDES": "98017A",
    "EPOCH": "2023-05-05 20:58:20",
    "EPOCH_MICROSECONDS": "22240",
    "MEAN_MOTION": "14.54156821",
    "ECCENTRICITY": "0.0013939",
    "INCLINATION": "98.2612",
    "RA_OF_ASC_NODE": "219.3879",
    "ARG_OF_PERICENTER": "135.8974",
    "MEAN_ANOMALY": "224.3337",
    "EPHEMERIS_TYPE": "0",
    "ELEMENT_SET_NO": "999",
    "REV_AT_EPOCH": "31376",
    "BSTAR": "0.00014655",
    "MEAN_MOTION_DOT": "0.00000575",
    "MEAN_MOTION_DDOT": "0",
    "FILE": "3901993",
    "TLE_LINE0": "0 SPOT 4",
    "TLE_LINE1": "1 25260U 98017A   23125.87384285  .00000575  00000-0  14655-3 0  9999",
    "TLE_LINE2": "2 25260  98.2612 219.3879 0013939 135.8974 224.3337 14.54156821313767",
    "OBJECT_ID": "1998-017A",
    "OBJECT_NUMBER": "25260",
    "SEMIMAJOR_AXIS": "7090.241",
    "PERIOD": "99.026",
    "APOGEE": "721.989",
    "PERIGEE": "702.223",
    "DECAYED": "0"
  },
  {
    "COMMENT": "GENERATED VIA SPACETRACK.ORG API",
    "ORIGINATOR": "18 SPCS",
    "NORAD_CAT_ID": "25260",
    "OBJECT_NAME": "SPOT 4",
    "OBJECT_TYPE": "PAYLOAD",
    "CLASSIFICATION_TYPE": "U",
    "INTLDES": "98017A",
    "EPOCH": "2023-05-06 00:16:30",
    "EPOCH_MICROSECONDS": "215712",
    "MEAN_MOTION": "14.54156967",
    "ECCENTRICITY": "0.0013945",
    "INCLINATION": "98.2612",
    "RA_OF_ASC_NODE": "219.5238",
    "ARG_OF_PERICENTER": "135.5177",
    "MEAN_ANOMALY": "224.7142",
    "EPHEMERIS_TYPE": "0",
    "ELEMENT_SET_NO": "999",
    "REV_AT_EPOCH": "31402",
    "BSTAR": "0.00014638",
    "MEAN_MOTION_DOT": "0.00000575",
    "MEAN_MOTION_DDOT": "0",
    "FILE": "3901936",
    "TLE_LINE0": "0 SPOT 4",
    "TLE_LINE1": "1 25260U 98017A   23126.01146083  .00000575  00000-0  14638-3 0  9999",
    "TLE_LINE2": "2 25260  98.2612 219.5238 0013945 135.5177 224.7142 14.54156967314026",
    "OBJECT_ID": "1998-017A",
    "OBJECT_NUMBER": "25260",
    "SEMIMAJOR_AXIS": "7090.241",
    "PERIOD": "99.026",
    "APOGEE": "721.993",
    "PERIGEE": "702.218",
    "DECAYED": "0"
  },
  {
    "COMMENT": "GENERATED VIA SPACETRACK.ORG API",
    "ORIGINATOR": "18 SPCS",
    "NORAD_CAT_ID": "25260",
    "OBJECT_NAME": "SPOT 4",
    "OBJECT_TYPE": "PAYLOAD",
    "CLASSIFICATION_TYPE": "U",
    "INTLDES": "98017A",
    "EPOCH": "2023-05-06 06:52:50",
    "EPOCH_MICROSECONDS": "600928",
    "MEAN_MOTION": "14.54157898",
    "ECCENTRICITY": "0.0013945",
    "INCLINATION": "98.2612",
    "RA_OF_ASC_NODE": "219.7955",
    "ARG_OF_PERICENTER": "134.7518",
    "MEAN_ANOMALY": "225.4815",
    "EPHEMERIS_TYPE": "0",
    "ELEMENT_SET_NO": "999",
    "REV_AT_EPOCH": "31406",
    "BSTAR": "0.00017395",
    "MEAN_MOTION_DOT": "0.00000691",
    "MEAN_MOTION_DDOT": "0",
    "FILE": "3902233",
    "TLE_LINE0": "0 SPOT 4",
    "TLE_LINE1": "1 25260U 98017A   23126.28669677  .00000691  00000-0  17395-3 0  9999",
    "TLE_LINE2": "2 25260  98.2612 219.7955 0013945 134.7518 225.4815 14.54157898314067",
    "OBJECT_ID": "1998-017A",
    "OBJECT_NUMBER": "25260",
    "SEMIMAJOR_AXIS": "7090.238",
    "PERIOD": "99.026",
    "APOGEE": "721.990",
    "PERIGEE": "702.215",
    "DECAYED": "0"
  },
  {
    "COMMENT": "GENERATED VIA SPACETRACK.ORG API",
    "ORIGINATOR": "18 SPCS",
    "NORAD_CAT_ID": "25260",
    "OBJECT_NAME": "SPOT 4",
    "OBJECT_TYPE": "PAYLOAD",
    "CLASSIFICATION_TYPE": "U",
    "INTLDES": "98017A",
    "EPOCH": "2023-05-06 06:52:50",
    "EPOCH_MICROSECONDS": "600928",
    "MEAN_MOTION": "14.54157898",
    "ECCENTRICITY": "0.0013945",
    "INCLINATION": "98.2612",
    "RA_OF_ASC_NODE": "219.7955",
    "ARG_OF_PERICENTER": "134.7518",
    "MEAN_ANOMALY": "225.4815",
    "EPHEMERIS_TYPE": "0",
    "ELEMENT_SET_NO": "999",
    "REV_AT_EPOCH": "31382",
    "BSTAR": "0.00017395",
    "MEAN_MOTION_DOT": "0.00000691",
    "MEAN_MOTION_DDOT": "0",
    "FILE": "3902298",
    "TLE_LINE0": "0 SPOT 4",
    "TLE_LINE1": "1 25260U 98017A   23126.28669677  .00000691  00000-0  17395-3 0  9999",
    "TLE_LINE2": "2 25260  98.2612 219.7955 0013945 134.7518 225.4815 14.54157898313820",
    "OBJECT_ID": "1998-017A",
    "OBJECT_NUMBER": "25260",
    "SEMIMAJOR_AXIS": "7090.238",
    "PERIOD": "99.026",
    "APOGEE": "721.990",
    "PERIGEE": "702.215",
    "DECAYED": "0"
  },
  {
    "COMMENT": "GENERATED VIA SPACETRACK.ORG API",
    "ORIGINATOR": "18 SPCS",
    "NORAD_CAT_ID": "25260",
    "OBJECT_NAME": "SPOT 4",
    "OBJECT_TYPE": "PAYLOAD",
    "CLASSIFICATION_TYPE": "U",
    "INTLDES": "98017A",
    "EPOCH": "2023-05-07 02:41:51",
    "EPOCH_MICROSECONDS": "660672",
    "MEAN_MOTION": "14.5415936",
    "ECCENTRICITY": "0.0013975",
    "INCLINATION": "98.2613",
    "RA_OF_ASC_NODE": "220.6107",
    "ARG_OF_PERICENTER": "132.395",
    "MEAN_ANOMALY": "227.8431",
    "EPHEMERIS_TYPE": "0",
    "ELEMENT_SET_NO": "999",
    "REV_AT_EPOCH": "31418",
    "BSTAR": "0.00018768",
    "MEAN_MOTION_DOT": "0.0000075",
    "MEAN_MOTION_DDOT": "0",
    "FILE": "3902745",
    "TLE_LINE0": "0 SPOT 4",
    "TLE_LINE1": "1 25260U 98017A   23127.11240348  .00000750  00000-0  18768-3 0  9993",
    "TLE_LINE2": "2 25260  98.2613 220.6107 0013975 132.3950 227.8431 14.54159360314184",
    "OBJECT_ID": "1998-017A",
    "OBJECT_NUMBER": "25260",
    "SEMIMAJOR_AXIS": "7090.233",
    "PERIOD": "99.026",
    "APOGEE": "722.007",
    "PERIGEE": "702.189",
    "DECAYED": "0"
  },
  {
    "COMMENT": "GENERATED VIA SPACETRACK.ORG API",
    "ORIGINATOR": "18 SPCS",
    "NORAD_CAT_ID": "25260",
    "OBJECT_NAME": "SPOT 4",
    "OBJECT_TYPE": "PAYLOAD",
    "CLASSIFICATION_TYPE": "U",
    "INTLDES": "98017A",
    "EPOCH": "2023-05-07 06:00:01",
    "EPOCH_MICROSECONDS": "874880",
    "MEAN_MOTION": "14.54159287",
    "ECCENTRICITY": "0.0013989",
    "INCLINATION": "98.2613",
    "RA_OF_ASC_NODE": "220.7466",
    "ARG_OF_PERICENTER": "131.9586",
    "MEAN_ANOMALY": "228.2805",
    "EPHEMERIS_TYPE": "0",
    "ELEMENT_SET_NO": "999",
    "REV_AT_EPOCH": "31420",
    "BSTAR": "0.00018186",
    "MEAN_MOTION_DOT": "0.00000725",
    "MEAN_MOTION_DDOT": "0",
    "FILE": "3903157",
    "TLE_LINE0": "0 SPOT 4",
    "TLE_LINE1": "1 25260U 98017A   23127.25002170  .00000725  00000-0  18186-3 0  9993",
    "TLE_LINE2": "2 25260  98.2613 220.7466 0013989 131.9586 228.2805 14.54159287314209",
    "OBJECT_ID": "1998-017A",
    "OBJECT_NUMBER": "25260",
    "SEMIMAJOR_AXIS": "7090.233",
    "PERIOD": "99.026",
    "APOGEE": "722.017",
    "PERIGEE": "702.180",
    "DECAYED": "0"
  }
]